BEIDOU 3 (C01)          
1 36287U 10001A   21309.91313723 -.00000273  00000-0  00000-0 0  9995
2 36287   1.7087  42.1604 0002112  77.8527  34.5921  1.00272083 43273
BEIDOU 5 (C06)          
1 36828U 10036A   21309.84343674 -.00000060  00000-0  00000-0 0  9998
2 36828  54.1796 178.2882 0023247 176.6772 100.4532  1.00262689 41331
BEIDOU 6 (C04)          
1 37210U 10057A   21310.59820479 -.00000106  00000-0  00000+0 0  9994
2 37210   0.7800  41.7739 0007124 158.7325 220.9185  1.00272653 40407
BEIDOU 7 (C07)          
1 37256U 10068A   21310.28868024 -.00000210  00000-0  00000+0 0  9996
2 37256  50.6133 292.3123 0017363 191.1516 134.4201  1.00263802 39907
BEIDOU 8 (C08)          
1 37384U 11013A   21310.05806125 -.00000196  00000-0  00000+0 0  9991
2 37384  59.9722  56.4864 0019542 184.5681 291.2835  1.00268972 38789
BEIDOU 9 (C09)          
1 37763U 11038A   21310.05615269 -.00000023  00000-0  00000+0 0  9995
2 37763  54.4648 180.7483 0086200 226.0767 114.1492  1.00281177 37757
BEIDOU 10 (C10)         
1 37948U 11073A   21310.40690093 -.00000158  00000-0  00000+0 0  9995
2 37948  50.7262 291.9345 0078356 218.4910 136.7092  1.00261117 36514
BEIDOU 11 (C05)         
1 38091U 12008A   21310.18397111  .00000064  00000-0  00000+0 0  9999
2 38091   1.8599  70.7201 0003178 283.5883 176.2734  1.00271899 35597
BEIDOU 12 (C11)         
1 38250U 12018A   21309.69656082 -.00000074  00000-0  00000-0 0  9999
2 38250  56.7418   0.9515 0024220 247.0444  64.3762  1.86234432 64917
BEIDOU 13 (C12)         
1 38251U 12018B   21310.17115277 -.00000077  00000-0  00000+0 0  9993
2 38251  56.6605   0.2765 0015156 247.7196  66.2106  1.86234185 64923
BEIDOU 15 (C14)         
1 38775U 12050B   21310.48983418  .00000055  00000-0  00000+0 0  9999
2 38775  55.2765 119.1949 0011742 329.5240  35.2074  1.86231347 62314
BEIDOU 16 (C02)         
1 38953U 12059A   21309.92833940 -.00000166  00000-0  00000-0 0  9992
2 38953   1.4351  84.2479 0009824 275.9070 103.3487  1.00267353 33167
BEIDOU 17 (C31)         
1 40549U 15019A   21309.97610878 -.00000167  00000-0  00000+0 0  9993
2 40549  52.2660 315.3507 0037821 190.5592 345.3424  1.00290998 24190
BEIDOU 18 (C57)         
1 40748U 15037A   21309.76425554 -.00000075  00000-0  00000-0 0  9995
2 40748  55.9202 359.2909 0001380 334.1321 336.7469  1.86233500 42747
BEIDOU 19 (C58)         
1 40749U 15037B   21309.85751515 -.00000076  00000-0  00000-0 0  9996
2 40749  55.9225 359.2766 0004572 289.3982 219.4623  1.86232169 42743
BEIDOU 20 (C18)         
1 40938U 15053A   21309.40092924 -.00000134  00000-0  00000-0 0  9992
2 40938  51.8524 278.4464 0047055 196.7462 166.3326  1.00251923 22466
BEIDOU IGSO-6 (C13)     
1 41434U 16021A   21309.76070448 -.00000172  00000-0  00000-0 0  9998
2 41434  57.7741  55.1659 0044440 211.8739 147.2608  1.00285458 20583
BEIDOU-2 G7 (C03)       
1 41586U 16037A   21310.43152334 -.00000348  00000-0  00000+0 0  9998
2 41586   1.4871  64.7816 0007726   5.8210 241.1423  1.00275707 19890
BEIDOU-3 M1 (C19)       
1 43001U 17069A   21309.71924485  .00000062  00000-0  00000-0 0  9994
2 43001  55.4296 119.1913 0007109 291.1121  73.0470  1.86231789 27230
BEIDOU-3 M2 (C20)       
1 43002U 17069B   21310.10063010  .00000059  00000-0  00000+0 0  9993
2 43002  55.4297 119.2143 0005854 324.1641 338.9631  1.86231429 27229
BEIDOU-3 M3 (C27)       
1 43107U 18003A   21310.37101486 -.00000080  00000-0  00000+0 0  9992
2 43107  55.3650   0.2879 0003371  56.4530 233.8975  1.86232598 25990
BEIDOU-3 M4 (C28)       
1 43108U 18003B   21310.30771161 -.00000080  00000-0  00000+0 0  9999
2 43108  55.3594   0.2815 0004153 240.6807  52.3737  1.86231529 25994
BEIDOU-3 M5 (C21)       
1 43207U 18018A   21309.24381861  .00000068  00000-0  00000-0 0  9996
2 43207  55.3881 119.3296 0004424   3.9852 356.0398  1.86231682 25367
BEIDOU-3 M6 (C22)       
1 43208U 18018B   21310.06757448  .00000059  00000-0  00000+0 0  9996
2 43208  55.3890 119.3060 0005289 308.2459 199.2768  1.86231649 25373
BEIDOU-3 M7 (C29)       
1 43245U 18029A   21310.51148626 -.00000080  00000-0  00000+0 0  9996
2 43245  55.2897 358.0661 0001161 223.5291  71.2887  1.86232731 24538
BEIDOU-3 M8 (C30)       
1 43246U 18029B   21310.04277220 -.00000077  00000-0  10000-3 0  9999
2 43246  55.2870 358.1121 0003236 337.8427  49.0636  1.86233083 24522
BEIDOU IGSO-7 (C16)     
1 43539U 18057A   21309.98104628 -.00000069  00000-0  00000-0 0  9994
2 43539  55.0609 177.6917 0040298 222.2795 112.0748  1.00278648 12261
BEIDOU-3 M9 (C23)       
1 43581U 18062A   21309.49965065  .00000012  00000-0  00000-0 0  9990
2 43581  54.3508 239.7583 0005164 285.3180 307.8323  1.86231969 22250
BEIDOU-3 M10 (C24)      
1 43582U 18062B   21310.35153015  .00000015  00000-0  00000+0 0  9994
2 43582  54.3499 239.7193 0005994 346.8994 188.9177  1.86232485 22275
BEIDOU-3 M11 (C25)      
1 43602U 18067A   21309.76253605  .00000015  00000-0  00000-0 0  9992
2 43602  54.4290 238.3345 0007351 357.2773 185.5366  1.86231586 21758
BEIDOU-3 M12 (C26)      
1 43603U 18067B   21309.97168049  .00000015  00000-0  00000+0 0  9992
2 43603  54.4257 238.2943 0004730 344.0653 249.3980  1.86231528 21773
BEIDOU-3 M13 (C32)      
1 43622U 18072A   21310.47758863  .00000055  00000-0  00000+0 0  9999
2 43622  55.3544 118.8508 0003896 283.9378 318.6571  1.86231775 21297
BEIDOU-3 M14 (C33)      
1 43623U 18072B   21309.45463301  .00000065  00000-0  00000-0 0  9998
2 43623  55.3562 118.8768 0002504 336.8990  30.0841  1.86231765 21282
BEIDOU-3 M15 (C34)      
1 43647U 18078A   21310.30910295 -.00000079  00000-0  00000+0 0  9990
2 43647  55.1847 358.2480 0005407 348.4541 126.6609  1.86232990 20801
BEIDOU-3 M16 (C35)      
1 43648U 18078B   21310.16805750 -.00000078  00000-0  00000+0 0  9993
2 43648  55.1809 358.2615 0003204 359.6252 289.1278  1.86232428 20810
BEIDOU-3 G1 (C59)       
1 43683U 18085A   21310.08143507 -.00000271  00000-0  00000+0 0  9991
2 43683   0.8819 206.9163 0004745  39.3733 328.5324  1.00266283 11161
BEIDOU-3 M17 (C36)      
1 43706U 18093A   21309.35325481  .00000012  00000-0  00000-0 0  9990
2 43706  54.4312 239.6337 0010154 279.9294  79.9643  1.86231617 20169
BEIDOU-3 M18 (C37)      
1 43707U 18093B   21310.10605935  .00000015  00000-0  00000+0 0  9993
2 43707  54.4327 239.5981 0009541 299.5502 296.0675  1.86232259 20168
BEIDOU-3 IGSO-1 (C38)   
1 44204U 19023A   21309.99731941 -.00000231  00000-0  00000-0 0  9994
2 44204  56.2303  55.3834 0023236 187.8491 280.3982  1.00278591  9472
BEIDOU-2 G8             
1 44231U 19027A   21309.92117250 -.00000240  00000-0  00000-0 0  9992
2 44231   0.3695  50.5661 0007370 158.8519 312.1125  1.00268979  9181
BEIDOU-3 IGSO-2 (C39)   
1 44337U 19035A   21309.98716201 -.00000068  00000-0  00000-0 0  9993
2 44337  55.0987 173.7247 0020386 178.6196 167.9840  1.00269225  8803
BEIDOU-3 M23 (C45)      
1 44542U 19061A   21309.63557950  .00000013  00000-0  10000-3 0  9999
2 44542  54.6572 239.7221 0009328 330.8999 261.8739  1.86231583 14412
BEIDOU-3 M24 (C46)      
1 44543U 19061B   21309.77666271  .00000014  00000-0  10000-3 0  9993
2 44543  54.6557 239.6865 0006739 321.5957 276.7970  1.86231934 14415
BEIDOU-3 IGSO-3         
1 44709U 19073A   21309.69397618 -.00000186  00000-0  00000-0 0  9994
2 44709  57.6223 298.7001 0019795 187.1227 289.2692  1.00274738  7565
BEIDOU-3 M21            
1 44793U 19078A   21310.20869314 -.00000079  00000-0  10000-3 0  9993
2 44793  55.0333 358.3024 0005195 357.4016   4.6391  1.86232497 13299
BEIDOU-3 M22            
1 44794U 19078B   21310.34211139 -.00000080  00000-0  00000+0 0  9992
2 44794  55.0071 358.2936 0003293 348.8727  13.8623  1.86232976 13292
BEIDOU-3 M19            
1 44864U 19090A   21310.57567419  .00000054  00000-0  00000+0 0  9994
2 44864  55.2903 119.0702 0014172 264.1253  89.7855  1.86231940 12874
BEIDOU-3 M20            
1 44865U 19090B   21309.69541734  .00000062  00000-0  00000-0 0  9998
2 44865  55.2920 119.1315 0012402 281.1418 292.4986  1.86231957 12833
BEIDOU-3 G2             
1 45344U 20017A   21310.10535400 -.00000137  00000-0  00000+0 0  9996
2 45344   2.2646 341.9455 0002301 184.1498 357.4512  1.00271036  6388
BEIDOU-3 G3             
1 45807U 20040A   21310.62494653 -.00000349  00000-0  00000+0 0  9992
2 45807   1.9589 299.4486 0010459 341.3816 100.6870  1.00265861  5203
